HAWK-2B                 
1 47508U 21006CZ  26068.67629241  .00009474  00000+0  29651-3 0  9991
2 47508  97.2334 114.1140 0007102 185.9063 174.2098 15.33301353284246
STARLINK-3690           
1 51964U 22025J   26068.27551503 -.00000066  00000+0  98931-5 0  9993
2 51964  53.1606  26.2078 0001397 104.7016 255.4139 15.30191903220951
